[{"OBJECT_NAME":"KINEIS-1C","OBJECT_ID":"2024-114C","EPOCH":"2026-03-10T00:10:11.544384","MEAN_MOTION":14.80409337,"ECCENTRICITY":0.00022495,"INCLINATION":97.9945,"RA_OF_ASC_NODE":93.4647,"ARG_OF_PERICENTER":117.2178,"MEAN_ANOMALY":242.9263,"EPHEMERIS_TYPE":0,"CLASSIFICATION_TYPE":"U","NORAD_CAT_ID":60081,"ELEMENT_SET_NO":999,"REV_AT_EPOCH":9270,"BSTAR":0.00020502578,"MEAN_MOTION_DOT":1.513e-5,"MEAN_MOTION_DDOT":0},{"OBJECT_NAME":"KUIPER-00082","OBJECT_ID":"2025-151N","EPOCH":"2026-03-09T21:48:21.424320","MEAN_MOTION":14.79927202,"ECCENTRICITY":6.123e-5,"INCLINATION":51.9016,"RA_OF_ASC_NODE":287.1338,"ARG_OF_PERICENTER":95.8656,"MEAN_ANOMALY":264.2376,"EPHEMERIS_TYPE":0,"CLASSIFICATION_TYPE":"U","NORAD_CAT_ID":64828,"ELEMENT_SET_NO":999,"REV_AT_EPOCH":3551,"BSTAR":0.0006160009,"MEAN_MOTION_DOT":4.477e-5,"MEAN_MOTION_DDOT":0}]
